{"type":"FeatureCollection","features":[{"type":"Feature","properties":{"name":"Rybnik Śródmieście Sąd","mode":"bus","text":"27 28 29 36 45 46A","n":6,"tip":0},"geometry":{"type":"Point","coordinates":[18.546177,50.081638]}},{"type":"Feature","properties":{"name":"Rybnik Śródmieście Dworzec Kolejowy","mode":"bus","text":"1 8 300 302 306","n":5,"tip":0},"geometry":{"type":"Point","coordinates":[18.548921,50.079875]}},{"type":"Feature","properties":{"name":"Rybnik Ligota Ligocka Kuźnia Kaplica","mode":"bus","text":"42","n":1,"tip":0},"geometry":{"type":"Point","coordinates":[18.576363,50.079875]}},{"type":"Feature","properties":{"name":"Boguszowice Osiedle Kopalnia","mode":"bus","text":"05","n":1,"tip":0},"geometry":{"type":"Point","coordinates":[18.598317,50.053435]}},{"type":"Feature","properties":{"name":"Rybnik Boguszowice Osiedle Pętla","mode":"bus","text":"13 15 32 42 46 46A 48 49 N8","n":9,"tip":0},"geometry":{"type":"Point","coordinates":[18.617526,50.04991]}},{"type":"Feature","properties":{"name":"Rybnik Śródmieście Chrobrego","mode":"bus","text":"46A","n":1,"tip":0},"geometry":{"type":"Point","coordinates":[18.551666,50.081638]}},{"type":"Feature","properties":{"name":"Żory Centrum Przesiadkowe","mode":"bus","text":"01 02 03 04 05 06 07 52 305 306 307 308 S10 S11","n":14,"tip":0},"geometry":{"type":"Point","coordinates":[18.661434,50.044622]}},{"type":"Feature","properties":{"name":"Rybnik Śródmieście 3 Maja","mode":"bus","text":"2 S12 S12A W10","n":4,"tip":0},"geometry":{"type":"Point","coordinates":[18.548921,50.081638]}},{"type":"Feature","properties":{"name":"Rybnik Śródmieście Policja","mode":"bus","text":"28 36","n":2,"tip":0},"geometry":{"type":"Point","coordinates":[18.548921,50.078113]}},{"type":"Feature","properties":{"name":"Radlin Korfantego Centrum","mode":"bus","text":"209","n":1,"tip":0},"geometry":{"type":"Point","coordinates":[18.491293,50.044622]}},{"type":"Feature","properties":{"name":"Radlin Korfantego KWK Marcel","mode":"bus","text":"210","n":1,"tip":0},"geometry":{"type":"Point","coordinates":[18.494037,50.041097]}},{"type":"Feature","properties":{"name":"Rybnik Chwałowice Kopalnia","mode":"bus","text":"42","n":1,"tip":0},"geometry":{"type":"Point","coordinates":[18.551666,50.072825]}},{"type":"Feature","properties":{"name":"Rybnik Chwałowice Pętla","mode":"bus","text":"12 15 27 29 36 41 43","n":7,"tip":0},"geometry":{"type":"Point","coordinates":[18.548921,50.064011]}},{"type":"Feature","properties":{"name":"Rybnik Orzepowice Storczyków","mode":"bus","text":"3 33 46","n":3,"tip":0},"geometry":{"type":"Point","coordinates":[18.529712,50.090451]}},{"type":"Feature","properties":{"name":"Rybnik Orzepowice Szpital Woj","mode":"bus","text":"24","n":1,"tip":0},"geometry":{"type":"Point","coordinates":[18.537945,50.088689]}},{"type":"Feature","properties":{"name":"Rybnik Niewiadom Frontowa","mode":"bus","text":"204","n":1,"tip":0},"geometry":{"type":"Point","coordinates":[18.488549,50.067537]}},{"type":"Feature","properties":{"name":"Rybnik Zamysłów Dolna Mostek","mode":"bus","text":"A","n":1,"tip":1},"geometry":{"type":"Point","coordinates":[18.537945,50.067537]}},{"type":"Feature","properties":{"name":"Rybnik Północ Wawok","mode":"bus","text":"A","n":1,"tip":0},"geometry":{"type":"Point","coordinates":[18.543433,50.088689]}},{"type":"Feature","properties":{"name":"Rybnik Stodoły Kaplica","mode":"bus","text":"PR","n":1,"tip":0},"geometry":{"type":"Point","coordinates":[18.518735,50.101027]}},{"type":"Feature","properties":{"name":"Rudy Kościół","mode":"bus","text":"43","n":1,"tip":1},"geometry":{"type":"Point","coordinates":[18.507758,50.109841]}},{"type":"Feature","properties":{"name":"Rydułtowy Rynek","mode":"bus","text":"8 28 29 203 207","n":5,"tip":0},"geometry":{"type":"Point","coordinates":[18.469339,50.048147]}},{"type":"Feature","properties":{"name":"Pszów DA","mode":"bus","text":"10","n":1,"tip":1},"geometry":{"type":"Point","coordinates":[18.463851,50.034046]}},{"type":"Feature","properties":{"name":"Rybnik Północ Kąpielisko Ruda","mode":"bus","text":"7 23 30","n":3,"tip":0},"geometry":{"type":"Point","coordinates":[18.551666,50.092214]}},{"type":"Feature","properties":{"name":"Rybnik Rybnicka Kuźnia Chłodnie","mode":"bus","text":"N6","n":1,"tip":0},"geometry":{"type":"Point","coordinates":[18.543433,50.097502]}},{"type":"Feature","properties":{"name":"Rybnik Rybnicka Kuźnia WORD","mode":"bus","text":"48","n":1,"tip":0},"geometry":{"type":"Point","coordinates":[18.55441,50.097502]}},{"type":"Feature","properties":{"name":"Rybnik Kłokocin Pętla","mode":"bus","text":"42 45","n":2,"tip":1},"geometry":{"type":"Point","coordinates":[18.628503,50.053435]}},{"type":"Feature","properties":{"name":"Zwonowice Szkoła","mode":"bus","text":"45","n":1,"tip":0},"geometry":{"type":"Point","coordinates":[18.496781,50.095739]}},{"type":"Feature","properties":{"name":"Rybnik Paruszowiec Piaski Przemysłowa","mode":"bus","text":"28","n":1,"tip":0},"geometry":{"type":"Point","coordinates":[18.579108,50.085163]}},{"type":"Feature","properties":{"name":"Jejkowice Centrum","mode":"bus","text":"1 26","n":2,"tip":0},"geometry":{"type":"Point","coordinates":[18.505014,50.081638]}},{"type":"Feature","properties":{"name":"Czernica Straż","mode":"bus","text":"29","n":1,"tip":0},"geometry":{"type":"Point","coordinates":[18.463851,50.064011]}},{"type":"Feature","properties":{"name":"Lyski Rondo","mode":"bus","text":"27 36 45","n":3,"tip":0},"geometry":{"type":"Point","coordinates":[18.472084,50.081638]}},{"type":"Feature","properties":{"name":"Buzowice Skrzyżowanie","mode":"bus","text":"7","n":1,"tip":0},"geometry":{"type":"Point","coordinates":[18.480316,50.069299]}},{"type":"Feature","properties":{"name":"Radlin Rydułtowska Reden Górka","mode":"bus","text":"209","n":1,"tip":0},"geometry":{"type":"Point","coordinates":[18.48306,50.046385]}},{"type":"Feature","properties":{"name":"Rybnik Grabownia Olszowiec","mode":"bus","text":"13 32","n":2,"tip":0},"geometry":{"type":"Point","coordinates":[18.5352,50.101027]}},{"type":"Feature","properties":{"name":"Rydułtowy Kopalnia","mode":"bus","text":"23","n":1,"tip":0},"geometry":{"type":"Point","coordinates":[18.477572,50.055198]}},{"type":"Feature","properties":{"name":"Plac Wolności","mode":"bus","text":"14 15 17 19 26 30 49 N6 PR","n":9,"tip":0},"geometry":{"type":"Point","coordinates":[18.548921,50.086926]}},{"type":"Feature","properties":{"name":"Rybnik Śródmieście Dworek","mode":"bus","text":"7","n":1,"tip":0},"geometry":{"type":"Point","coordinates":[18.543433,50.083401]}},{"type":"Feature","properties":{"name":"Jankowice G.S.","mode":"bus","text":"30","n":1,"tip":1},"geometry":{"type":"Point","coordinates":[18.568131,50.048147]}},{"type":"Feature","properties":{"name":"Szczerbice Straż","mode":"bus","text":"7","n":1,"tip":1},"geometry":{"type":"Point","coordinates":[18.491293,50.078113]}},{"type":"Feature","properties":{"name":"Rybnik Śródmieście Plac Wolności 1","mode":"bus","text":"6 8 34","n":3,"tip":0},"geometry":{"type":"Point","coordinates":[18.551666,50.085163]}},{"type":"Feature","properties":{"name":"Rybnik Śródmieście Plac Wolności 2","mode":"bus","text":"3 4 6 12 13 14 26 30 43 PR","n":10,"tip":0},"geometry":{"type":"Point","coordinates":[18.548921,50.083401]}},{"type":"Feature","properties":{"name":"Rybnik Śródmieście Plac Wolności 3","mode":"bus","text":"8 17 18 32 34 N8","n":6,"tip":0},"geometry":{"type":"Point","coordinates":[18.548921,50.085163]}},{"type":"Feature","properties":{"name":"Rybnik Maroko Nowiny Dworzec Aut. A","mode":"bus","text":"2 3 4 5 6 9 10 14 16 17 18 19 22 24 45 46 48 51 52 300 301","n":21,"tip":0},"geometry":{"type":"Point","coordinates":[18.540689,50.086926]}},{"type":"Feature","properties":{"name":"Rybnik Niewiadom Morcinka","mode":"bus","text":"24","n":1,"tip":1},"geometry":{"type":"Point","coordinates":[18.485805,50.053435]}},{"type":"Feature","properties":{"name":"Świerklany Dolne","mode":"bus","text":"05 208","n":2,"tip":0},"geometry":{"type":"Point","coordinates":[18.581852,50.014657]}},{"type":"Feature","properties":{"name":"Świerklany Szyb","mode":"bus","text":"33 208","n":2,"tip":1},"geometry":{"type":"Point","coordinates":[18.58734,49.99703]}},{"type":"Feature","properties":{"name":"Rybnik Rybnicka Kuźnia Chłodnie Pętla","mode":"bus","text":"26 48 49 N6","n":4,"tip":0},"geometry":{"type":"Point","coordinates":[18.543433,50.099265]}},{"type":"Feature","properties":{"name":"Marklowice Dolne","mode":"bus","text":"W52","n":1,"tip":0},"geometry":{"type":"Point","coordinates":[18.510502,50.018182]}},{"type":"Feature","properties":{"name":"Marklowice Słoneczna Wyspa","mode":"bus","text":"2","n":1,"tip":1},"geometry":{"type":"Point","coordinates":[18.515991,50.014657]}},{"type":"Feature","properties":{"name":"Radlin Ujejskiego","mode":"bus","text":"1 3 6","n":3,"tip":1},"geometry":{"type":"Point","coordinates":[18.496781,50.039334]}},{"type":"Feature","properties":{"name":"Rybnik Zebrzydowice Szkoła","mode":"bus","text":"24","n":1,"tip":0},"geometry":{"type":"Point","coordinates":[18.515991,50.081638]}},{"type":"Feature","properties":{"name":"Rybnik Niewiadom Sportowa","mode":"bus","text":"1","n":1,"tip":0},"geometry":{"type":"Point","coordinates":[18.491293,50.053435]}},{"type":"Feature","properties":{"name":"Rybnik Śródmieście Plac Wolności 3 kon","mode":"bus","text":"30","n":1,"tip":1},"geometry":{"type":"Point","coordinates":[18.55441,50.088689]}},{"type":"Feature","properties":{"name":"Wilcza Skrzyżowanie","mode":"bus","text":"34","n":1,"tip":1},"geometry":{"type":"Point","coordinates":[18.573619,50.118654]}},{"type":"Feature","properties":{"name":"Rybnik Meksyk Kolejowa","mode":"bus","text":"24","n":1,"tip":0},"geometry":{"type":"Point","coordinates":[18.559898,50.078113]}},{"type":"Feature","properties":{"name":"Rybnik Maroko Nowiny Zielona","mode":"bus","text":"28","n":1,"tip":0},"geometry":{"type":"Point","coordinates":[18.532456,50.081638]}},{"type":"Feature","properties":{"name":"Rybnik Gotartowice Rondo Sygnały","mode":"bus","text":"16 51","n":2,"tip":0},"geometry":{"type":"Point","coordinates":[18.60655,50.074587]}},{"type":"Feature","properties":{"name":"Rydułtowy Bednorz","mode":"bus","text":"204","n":1,"tip":0},"geometry":{"type":"Point","coordinates":[18.494037,50.065774]}},{"type":"Feature","properties":{"name":"Al. Jana Pawła II Bajerówka","mode":"bus","text":"04 05 08 09 ZL","n":5,"tip":0},"geometry":{"type":"Point","coordinates":[18.653201,50.032283]}},{"type":"Feature","properties":{"name":"Boczna - Klonowa","mode":"bus","text":"09","n":1,"tip":0},"geometry":{"type":"Point","coordinates":[18.672411,50.04991]}},{"type":"Feature","properties":{"name":"Leśna Miasteczko Westernowe","mode":"bus","text":"06","n":1,"tip":0},"geometry":{"type":"Point","coordinates":[18.675155,50.042859]}},{"type":"Feature","properties":{"name":"Przyjazna","mode":"bus","text":"07","n":1,"tip":0},"geometry":{"type":"Point","coordinates":[18.683387,50.035809]}},{"type":"Feature","properties":{"name":"Jasna","mode":"bus","text":"07","n":1,"tip":1},"geometry":{"type":"Point","coordinates":[18.683387,50.042859]}},{"type":"Feature","properties":{"name":"Główna Pętla","mode":"bus","text":"03","n":1,"tip":0},"geometry":{"type":"Point","coordinates":[18.655945,50.011131]}},{"type":"Feature","properties":{"name":"Pukowca - Pętla","mode":"bus","text":"06","n":1,"tip":0},"geometry":{"type":"Point","coordinates":[18.675155,50.019945]}},{"type":"Feature","properties":{"name":"Wygoda Północna","mode":"bus","text":"08","n":1,"tip":0},"geometry":{"type":"Point","coordinates":[18.653201,50.053435]}},{"type":"Feature","properties":{"name":"Gwarków Osiedle","mode":"bus","text":"05","n":1,"tip":0},"geometry":{"type":"Point","coordinates":[18.636736,50.037571]}},{"type":"Feature","properties":{"name":"Boguszowicka","mode":"bus","text":"05","n":1,"tip":0},"geometry":{"type":"Point","coordinates":[18.620271,50.039334]}},{"type":"Feature","properties":{"name":"Francuska","mode":"bus","text":"07","n":1,"tip":0},"geometry":{"type":"Point","coordinates":[18.672411,50.035809]}},{"type":"Feature","properties":{"name":"Al. Jana Pawła II - Industrialna","mode":"bus","text":"09","n":1,"tip":0},"geometry":{"type":"Point","coordinates":[18.650457,50.021707]}},{"type":"Feature","properties":{"name":"Rybnicka - Granica","mode":"bus","text":"04 08","n":2,"tip":1},"geometry":{"type":"Point","coordinates":[18.628503,50.062249]}},{"type":"Feature","properties":{"name":"Wygoda","mode":"bus","text":"08","n":1,"tip":0},"geometry":{"type":"Point","coordinates":[18.653201,50.056961]}},{"type":"Feature","properties":{"name":"Al. Zjednoczonej Europy - Archiwum","mode":"bus","text":"08","n":1,"tip":0},"geometry":{"type":"Point","coordinates":[18.655945,50.030521]}},{"type":"Feature","properties":{"name":"Górnicza - Basen","mode":"bus","text":"ZL","n":1,"tip":1},"geometry":{"type":"Point","coordinates":[18.631247,50.042859]}},{"type":"Feature","properties":{"name":"Szoszowy - Stalmacha","mode":"bus","text":"06","n":1,"tip":1},"geometry":{"type":"Point","coordinates":[18.675155,50.012894]}},{"type":"Feature","properties":{"name":"BLUSZCZÓW, POWSTAŃCÓW ŚRODKOWA","mode":"bus","text":"W34","n":1,"tip":0},"geometry":{"type":"Point","coordinates":[18.441897,50.009369]}},{"type":"Feature","properties":{"name":"BUKÓW, GŁÓWNA OŚRODEK WYPOCZYNKOWY","mode":"bus","text":"W42","n":1,"tip":0},"geometry":{"type":"Point","coordinates":[18.433665,50.021707]}},{"type":"Feature","properties":{"name":"BUKÓW, GŁÓWNA OWOCOWA","mode":"bus","text":"W42","n":1,"tip":0},"geometry":{"type":"Point","coordinates":[18.433665,50.014657]}},{"type":"Feature","properties":{"name":"GOŁKOWICE, CELNA","mode":"bus","text":"W38","n":1,"tip":1},"geometry":{"type":"Point","coordinates":[18.532456,49.954726]}},{"type":"Feature","properties":{"name":"GOŁKOWICE, CELNA","mode":"bus","text":"W38","n":1,"tip":1},"geometry":{"type":"Point","coordinates":[18.5352,49.956489]}},{"type":"Feature","properties":{"name":"Dworzec Arki Bożka","mode":"bus","text":"B12 B15 C10 C12 C13 C14 C17 C18 C19 M10 S10 W09 W10 W36","n":14,"tip":0},"geometry":{"type":"Point","coordinates":[18.601061,49.968827]}},{"type":"Feature","properties":{"name":"Dworzec Zdrój","mode":"bus","text":"B13 B14 S12 S12A S14 S15 W11","n":7,"tip":0},"geometry":{"type":"Point","coordinates":[18.573619,49.968827]}},{"type":"Feature","properties":{"name":"Mszana Mszańskie Granice","mode":"bus","text":"W59","n":1,"tip":0},"geometry":{"type":"Point","coordinates":[18.551666,49.974115]}},{"type":"Feature","properties":{"name":"MSZANA, SKRZYSZOWSKA TARTAK","mode":"bus","text":"W50","n":1,"tip":0},"geometry":{"type":"Point","coordinates":[18.518735,49.982929]}},{"type":"Feature","properties":{"name":"MSZANA, SKRZYSZOWSKA TARTAK","mode":"bus","text":"W50","n":1,"tip":0},"geometry":{"type":"Point","coordinates":[18.515991,49.981166]}},{"type":"Feature","properties":{"name":"ODRA, GŁÓWNA PĘTLA","mode":"bus","text":"W33","n":1,"tip":0},"geometry":{"type":"Point","coordinates":[18.441897,50.000555]}},{"type":"Feature","properties":{"name":"PSZÓW, DWORZEC AUTOBUSOWY","mode":"bus","text":"W51","n":1,"tip":0},"geometry":{"type":"Point","coordinates":[18.461107,50.035809]}},{"type":"Feature","properties":{"name":"RACIBÓRZ, DWORZEC AUTOBUSOWY","mode":"bus","text":"W41","n":1,"tip":0},"geometry":{"type":"Point","coordinates":[18.4172,50.056961]}},{"type":"Feature","properties":{"name":"RADLIN, CHROBREGO","mode":"bus","text":"W51","n":1,"tip":0},"geometry":{"type":"Point","coordinates":[18.474828,50.037571]}},{"type":"Feature","properties":{"name":"RYDUŁTOWY, PKP","mode":"bus","text":"W59","n":1,"tip":0},"geometry":{"type":"Point","coordinates":[18.477572,50.053435]}},{"type":"Feature","properties":{"name":"UCHYLSKO, WIEJSKA","mode":"bus","text":"W32","n":1,"tip":0},"geometry":{"type":"Point","coordinates":[18.466595,49.981166]}},{"type":"Feature","properties":{"name":"Wodzisław Dworzec Kolejowy","mode":"bus","text":"W36","n":1,"tip":0},"geometry":{"type":"Point","coordinates":[18.491293,50.011131]}},{"type":"Feature","properties":{"name":"WODZISŁAW ŚLĄSKI, MARKLOWICKA DZIAŁKI","mode":"bus","text":"W52","n":1,"tip":0},"geometry":{"type":"Point","coordinates":[18.499526,50.016419]}},{"type":"Feature","properties":{"name":"WODZISŁAW ŚLĄSKI, MŁODZIEŻOWA BOISKO","mode":"bus","text":"W52","n":1,"tip":0},"geometry":{"type":"Point","coordinates":[18.45013,50.02347]}},{"type":"Feature","properties":{"name":"WODZISŁAW ŚLĄSKI, MŁODZIEŻOWA BOISKO","mode":"bus","text":"W52","n":1,"tip":0},"geometry":{"type":"Point","coordinates":[18.452874,50.019945]}},{"type":"Feature","properties":{"name":"WODZISŁAW ŚLĄSKI, ROZWOJOWA","mode":"bus","text":"W50","n":1,"tip":0},"geometry":{"type":"Point","coordinates":[18.466595,50.014657]}},{"type":"Feature","properties":{"name":"WODZISŁAW ŚLĄSKI, ROZWOJOWA","mode":"bus","text":"W50","n":1,"tip":0},"geometry":{"type":"Point","coordinates":[18.466595,50.011131]}},{"type":"Feature","properties":{"name":"Wodzisław Dworzec Autobusowy","mode":"bus","text":"201 202 203 204 205 206 207 208 209 210 W09 W11 W32 W33 W34 W38 W41 W42 W53","n":19,"tip":0},"geometry":{"type":"Point","coordinates":[18.491293,50.007606]}},{"type":"Feature","properties":{"name":"WODZISŁAW, ŚLĄSKI, WILCHWY PĘTLA","mode":"bus","text":"W50 W51","n":2,"tip":0},"geometry":{"type":"Point","coordinates":[18.518735,49.986454]}},{"type":"Feature","properties":{"name":"WODZISŁAW ŚLĄŚKI, RADLIŃSKA REMIZA","mode":"bus","text":"W51 W59","n":2,"tip":0},"geometry":{"type":"Point","coordinates":[18.485805,50.025233]}},{"type":"Feature","properties":{"name":"Krzyżowice Kościół","mode":"bus","text":"L-4 S15","n":2,"tip":0},"geometry":{"type":"Point","coordinates":[18.642224,49.998793]}},{"type":"Feature","properties":{"name":"Pszów Staffa","mode":"bus","text":"203","n":1,"tip":0},"geometry":{"type":"Point","coordinates":[18.45013,50.034046]}},{"type":"Feature","properties":{"name":"Krzyżkowice Działki","mode":"bus","text":"203","n":1,"tip":0},"geometry":{"type":"Point","coordinates":[18.447386,50.048147]}},{"type":"Feature","properties":{"name":"Raciborska Orłowiec","mode":"bus","text":"204 205 206","n":3,"tip":0},"geometry":{"type":"Point","coordinates":[18.474828,50.060486]}},{"type":"Feature","properties":{"name":"Raciborska Orłowiec","mode":"bus","text":"204 206","n":2,"tip":0},"geometry":{"type":"Point","coordinates":[18.469339,50.058723]}},{"type":"Feature","properties":{"name":"Raciborska Bednorz","mode":"bus","text":"204","n":1,"tip":0},"geometry":{"type":"Point","coordinates":[18.491293,50.065774]}},{"type":"Feature","properties":{"name":"Rydułtowy Obywatelska","mode":"bus","text":"205","n":1,"tip":0},"geometry":{"type":"Point","coordinates":[18.477572,50.058723]}},{"type":"Feature","properties":{"name":"Dębieńsko Las","mode":"bus","text":"300 301 304","n":3,"tip":0},"geometry":{"type":"Point","coordinates":[18.65869,50.099265]}},{"type":"Feature","properties":{"name":"Ornontowice Centrum","mode":"bus","text":"301","n":1,"tip":1},"geometry":{"type":"Point","coordinates":[18.664178,50.10279]}},{"type":"Feature","properties":{"name":"KWK Dębieńsko","mode":"bus","text":"302","n":1,"tip":0},"geometry":{"type":"Point","coordinates":[18.620271,50.10279]}},{"type":"Feature","properties":{"name":"Koksownia Dębieńsko Pętla","mode":"bus","text":"302 303 305 309","n":4,"tip":0},"geometry":{"type":"Point","coordinates":[18.625759,50.10279]}},{"type":"Feature","properties":{"name":"Kamień Rzędówka","mode":"bus","text":"303","n":1,"tip":1},"geometry":{"type":"Point","coordinates":[18.595573,50.099265]}},{"type":"Feature","properties":{"name":"Leszczyny Czereśniowa","mode":"bus","text":"304 309","n":2,"tip":1},"geometry":{"type":"Point","coordinates":[18.609294,50.095739]}},{"type":"Feature","properties":{"name":"Szczejkowice Centrum","mode":"bus","text":"305","n":1,"tip":0},"geometry":{"type":"Point","coordinates":[18.644968,50.07635]}},{"type":"Feature","properties":{"name":"Bełk Pętla","mode":"bus","text":"305","n":1,"tip":1},"geometry":{"type":"Point","coordinates":[18.664178,50.086926]}},{"type":"Feature","properties":{"name":"KWK Pniówek","mode":"bus","text":"307 L-1","n":2,"tip":0},"geometry":{"type":"Point","coordinates":[18.647713,49.984691]}},{"type":"Feature","properties":{"name":"Pawłowice Centrum - TARG","mode":"bus","text":"B10 B11 B12 L-2 L-3 L-4 L-5 L-7","n":8,"tip":0},"geometry":{"type":"Point","coordinates":[18.664178,49.989979]}},{"type":"Feature","properties":{"name":"Mizerów Boisko","mode":"bus","text":"308","n":1,"tip":0},"geometry":{"type":"Point","coordinates":[18.69162,50.007606]}},{"type":"Feature","properties":{"name":"Suszec Piaskowa Osiedle.","mode":"bus","text":"308","n":1,"tip":0},"geometry":{"type":"Point","coordinates":[18.686132,50.037571]}},{"type":"Feature","properties":{"name":"Carbonarium WORD","mode":"bus","text":"B10 B11 C18 S13","n":4,"tip":0},"geometry":{"type":"Point","coordinates":[18.565387,49.965302]}},{"type":"Feature","properties":{"name":"Pniówek Wieś","mode":"bus","text":"L-4","n":1,"tip":0},"geometry":{"type":"Point","coordinates":[18.644968,49.984691]}},{"type":"Feature","properties":{"name":"KWK Jas-Mos","mode":"bus","text":"C10 C13 C15 C17","n":4,"tip":0},"geometry":{"type":"Point","coordinates":[18.568131,49.981166]}},{"type":"Feature","properties":{"name":"Bzie Szkoła","mode":"bus","text":"B15","n":1,"tip":0},"geometry":{"type":"Point","coordinates":[18.636736,49.975878]}},{"type":"Feature","properties":{"name":"Bzie Szkoła","mode":"bus","text":"B15","n":1,"tip":0},"geometry":{"type":"Point","coordinates":[18.633992,49.977641]}},{"type":"Feature","properties":{"name":"Bzie Dolne","mode":"bus","text":"B13 B14","n":2,"tip":0},"geometry":{"type":"Point","coordinates":[18.623015,49.965302]}},{"type":"Feature","properties":{"name":"Pielgrzymowice Pętla Zebrzydowice","mode":"bus","text":"B13","n":1,"tip":1},"geometry":{"type":"Point","coordinates":[18.60655,49.951201]}},{"type":"Feature","properties":{"name":"Chlebowa Pętla","mode":"bus","text":"C11 C15 C16 R10 R11 S11 S16","n":7,"tip":0},"geometry":{"type":"Point","coordinates":[18.576363,49.963539]}},{"type":"Feature","properties":{"name":"Os. Bogoczowiec","mode":"bus","text":"C19","n":1,"tip":0},"geometry":{"type":"Point","coordinates":[18.565387,49.979403]}},{"type":"Feature","properties":{"name":"Golasowice Pętla","mode":"bus","text":"L-2","n":1,"tip":0},"geometry":{"type":"Point","coordinates":[18.633992,49.963539]}},{"type":"Feature","properties":{"name":"Pawłowice Osiedle Liceum","mode":"bus","text":"L-5 L-6","n":2,"tip":0},"geometry":{"type":"Point","coordinates":[18.650457,49.984691]}},{"type":"Feature","properties":{"name":"Warszowice Wiadukt","mode":"bus","text":"L-3","n":1,"tip":0},"geometry":{"type":"Point","coordinates":[18.666922,50.005843]}},{"type":"Feature","properties":{"name":"Strumień RYNEK","mode":"bus","text":"L-5","n":1,"tip":0},"geometry":{"type":"Point","coordinates":[18.669666,49.972353]}},{"type":"Feature","properties":{"name":"Bąków Skrzyżowanie","mode":"bus","text":"L-6","n":1,"tip":1},"geometry":{"type":"Point","coordinates":[18.655945,49.963539]}},{"type":"Feature","properties":{"name":"Studzionka Cmentarz","mode":"bus","text":"L-7","n":1,"tip":1},"geometry":{"type":"Point","coordinates":[18.680643,49.988217]}},{"type":"Feature","properties":{"name":"Studzionka Cmentarz","mode":"bus","text":"L-7","n":1,"tip":1},"geometry":{"type":"Point","coordinates":[18.683387,49.991742]}},{"type":"Feature","properties":{"name":"Szotkowice Pętla","mode":"bus","text":"M10","n":1,"tip":1},"geometry":{"type":"Point","coordinates":[18.537945,49.968827]}},{"type":"Feature","properties":{"name":"Zebrzydowice Ośrodek Zdrowia","mode":"bus","text":"R10","n":1,"tip":0},"geometry":{"type":"Point","coordinates":[18.601061,49.945913]}},{"type":"Feature","properties":{"name":"Zebrzydowice Skrzyżowanie","mode":"bus","text":"R11","n":1,"tip":0},"geometry":{"type":"Point","coordinates":[18.590084,49.947675]}},{"type":"Feature","properties":{"name":"KWK Borynia","mode":"bus","text":"S13 S14 S16","n":3,"tip":0},"geometry":{"type":"Point","coordinates":[18.612038,50.000555]}}]}